[
  {
    "OBJECT_NAME": "CSTP 1.1 (STC 1.1)",
    "OBJECT_ID": "2023-091AN",
    "EPOCH": "2025-09-20T02:52:34.264128",
    "MEAN_MOTION": 15.15457666,
    "ECCENTRICITY": 0.00092086,
    "INCLINATION": 97.5545,
    "RA_OF_ASC_NODE": 318.4435,
    "ARG_OF_PERICENTER": 335.8428,
    "MEAN_ANOMALY": 24.2371,
    "EPHEMERIS_TYPE": 0,
    "CLASSIFICATION_TYPE": "U",
    "NORAD_CAT_ID": 57202,
    "ELEMENT_SET_NO": 999,
    "REV_AT_EPOCH": 12300,
    "BSTAR": 0.00028693077,
    "MEAN_MOTION_DOT": 5.365e-05,
    "MEAN_MOTION_DDOT": 0,
    "TLE": {
      "line1": "1 57202U 23091AN  25263.11984102  .00005365  00000+0  28693-3 0  9994",
      "line2": "2 57202  97.5545 318.4435 0009208 335.8428  24.2371 15.15457666123004"
    }
  },
  {
    "OBJECT_NAME": "ICEYE-X52",
    "OBJECT_ID": "2025-135AW",
    "EPOCH": "2025-09-20T06:45:35.576064",
    "MEAN_MOTION": 14.91837216,
    "ECCENTRICITY": 0.00029836,
    "INCLINATION": 97.7553,
    "RA_OF_ASC_NODE": 16.1794,
    "ARG_OF_PERICENTER": 127.796,
    "MEAN_ANOMALY": 232.3529,
    "EPHEMERIS_TYPE": 0,
    "CLASSIFICATION_TYPE": "U",
    "NORAD_CAT_ID": 64572,
    "ELEMENT_SET_NO": 999,
    "REV_AT_EPOCH": 1361,
    "BSTAR": 0.00027675598,
    "MEAN_MOTION_DOT": 2.738e-05,
    "MEAN_MOTION_DDOT": 0,
    "TLE": {
      "line1": "1 64572U 25135AW  25263.28166176  .00002738  00000+0  27676-3 0  9995",
      "line2": "2 64572  97.7553  16.1794 0002983 127.7960 232.3529 14.91837216 13613"
    }
  },
  {
    "OBJECT_NAME": "STARLINK-4216",
    "OBJECT_ID": "2022-076AN",
    "EPOCH": "2025-09-19T21:53:48.466464",
    "MEAN_MOTION": 15.08841079,
    "ECCENTRICITY": 0.0001307,
    "INCLINATION": 53.2168,
    "RA_OF_ASC_NODE": 130.7717,
    "ARG_OF_PERICENTER": 91.4577,
    "MEAN_ANOMALY": 268.6565,
    "EPHEMERIS_TYPE": 0,
    "CLASSIFICATION_TYPE": "U",
    "NORAD_CAT_ID": 53022,
    "ELEMENT_SET_NO": 999,
    "REV_AT_EPOCH": 17720,
    "BSTAR": 7.0847996e-05,
    "MEAN_MOTION_DOT": 8.4e-06,
    "MEAN_MOTION_DDOT": 0,
    "TLE": {
      "line1": "1 53022U 22076AN  25262.91236651  .00000840  00000+0  70848-4 0  9991",
      "line2": "2 53022  53.2168 130.7717 0001307  91.4577 268.6565 15.08841079177207"
    }
  },
  {
    "OBJECT_NAME": "STARLINK-1992",
    "OBJECT_ID": "2021-012N",
    "EPOCH": "2025-09-20T00:44:54.631968",
    "MEAN_MOTION": 15.06397704,
    "ECCENTRICITY": 0.00014614,
    "INCLINATION": 53.0581,
    "RA_OF_ASC_NODE": 22.7376,
    "ARG_OF_PERICENTER": 100.6008,
    "MEAN_ANOMALY": 259.5146,
    "EPHEMERIS_TYPE": 0,
    "CLASSIFICATION_TYPE": "U",
    "NORAD_CAT_ID": 47632,
    "ELEMENT_SET_NO": 999,
    "REV_AT_EPOCH": 25557,
    "BSTAR": 0.00014983886,
    "MEAN_MOTION_DOT": 1.951e-05,
    "MEAN_MOTION_DDOT": 0,
    "TLE": {
      "line1": "1 47632U 21012N   25263.03118787  .00001951  00000+0  14984-3 0  9995",
      "line2": "2 47632  53.0581  22.7376 0001461 100.6008 259.5146 15.06397704255578"
    }
  },
  {
    "OBJECT_NAME": "STARLINK-5514",
    "OBJECT_ID": "2023-094AG",
    "EPOCH": "2025-09-19T14:54:41.876928",
    "MEAN_MOTION": 15.02537696,
    "ECCENTRICITY": 0.00011585,
    "INCLINATION": 43.0021,
    "RA_OF_ASC_NODE": 227.1373,
    "ARG_OF_PERICENTER": 266.1666,
    "MEAN_ANOMALY": 93.9044,
    "EPHEMERIS_TYPE": 0,
    "CLASSIFICATION_TYPE": "U",
    "NORAD_CAT_ID": 57248,
    "ELEMENT_SET_NO": 999,
    "REV_AT_EPOCH": 12153,
    "BSTAR": 6.51772e-05,
    "MEAN_MOTION_DOT": 6.77e-06,
    "MEAN_MOTION_DDOT": 0,
    "TLE": {
      "line1": "1 57248U 23094AG  25262.62131802  .00000677  00000+0  65177-4 0  9993",
      "line2": "2 57248  43.0021 227.1373 0001158 266.1666  93.9044 15.02537696121536"
    }
  },
  {
    "OBJECT_NAME": "STARLINK-1835",
    "OBJECT_ID": "2020-074AV",
    "EPOCH": "2025-09-19T13:54:05.592096",
    "MEAN_MOTION": 15.06409336,
    "ECCENTRICITY": 0.00010707,
    "INCLINATION": 53.0566,
    "RA_OF_ASC_NODE": 359.7614,
    "ARG_OF_PERICENTER": 98.6855,
    "MEAN_ANOMALY": 261.4255,
    "EPHEMERIS_TYPE": 0,
    "CLASSIFICATION_TYPE": "U",
    "NORAD_CAT_ID": 46782,
    "ELEMENT_SET_NO": 999,
    "REV_AT_EPOCH": 27102,
    "BSTAR": 2.1627352e-05,
    "MEAN_MOTION_DOT": 4.1e-07,
    "MEAN_MOTION_DDOT": 0,
    "TLE": {
      "line1": "1 46782U 20074AV  25262.57923139  .00000041  00000+0  21627-4 0  9992",
      "line2": "2 46782  53.0566 359.7614 0001070  98.6855 261.4255 15.06409336271022"
    }
  },
  {
    "OBJECT_NAME": "2025-155P",
    "OBJECT_ID": "2025-155P",
    "EPOCH": "2025-09-20T03:57:08.457408",
    "MEAN_MOTION": 15.22679446,
    "ECCENTRICITY": 0.00095827,
    "INCLINATION": 97.4214,
    "RA_OF_ASC_NODE": 227.6642,
    "ARG_OF_PERICENTER": 56.8828,
    "MEAN_ANOMALY": 303.3327,
    "EPHEMERIS_TYPE": 0,
    "CLASSIFICATION_TYPE": "U",
    "NORAD_CAT_ID": 64889,
    "ELEMENT_SET_NO": 999,
    "REV_AT_EPOCH": 3956,
    "BSTAR": 0.0002595929,
    "MEAN_MOTION_DOT": 5.984e-05,
    "MEAN_MOTION_DDOT": 0,
    "TLE": {
      "line1": "1 64889U 25155P   25263.16468122  .00005984  00000+0  25959-3 0  9999",
      "line2": "2 64889  97.4214 227.6642 0009582  56.8828 303.3327 15.22679446 39564"
    }
  },
  {
    "OBJECT_NAME": "HUANJING 1B (HJ-1B)",
    "OBJECT_ID": "2008-041B",
    "EPOCH": "2025-09-20T07:22:28.612704",
    "MEAN_MOTION": 14.82482524,
    "ECCENTRICITY": 0.00366965,
    "INCLINATION": 97.636,
    "RA_OF_ASC_NODE": 259.0322,
    "ARG_OF_PERICENTER": 351.6859,
    "MEAN_ANOMALY": 8.3743,
    "EPHEMERIS_TYPE": 0,
    "CLASSIFICATION_TYPE": "U",
    "NORAD_CAT_ID": 33321,
    "ELEMENT_SET_NO": 999,
    "REV_AT_EPOCH": 91841,
    "BSTAR": 0.00018110312,
    "MEAN_MOTION_DOT": 1.418e-05,
    "MEAN_MOTION_DDOT": 0,
    "TLE": {
      "line1": "1 33321U 08041B   25263.30727561  .00001418  00000+0  18110-3 0  9991",
      "line2": "2 33321  97.6360 259.0322 0036696 351.6859   8.3743 14.82482524918413"
    }
  }
]